MALLIGYONG-1            
1 58400U 23179A   24131.57949121  .00010322  00000+0  44931-3 0  9999
2 58400  97.4081  19.0005 0010368  44.5004 315.7063 15.22369769 26001
